[{"OBJECT_NAME":"COSMOS 2588","OBJECT_ID":"2025-109A","EPOCH":"2026-03-09T19:28:59.107008","MEAN_MOTION":15.29122656,"ECCENTRICITY":0.0005019,"INCLINATION":72.9704,"RA_OF_ASC_NODE":73.5401,"ARG_OF_PERICENTER":308.678,"MEAN_ANOMALY":51.3966,"EPHEMERIS_TYPE":0,"CLASSIFICATION_TYPE":"U","NORAD_CAT_ID":64095,"ELEMENT_SET_NO":999,"REV_AT_EPOCH":4442,"BSTAR":0.00032611,"MEAN_MOTION_DOT":9.169e-5,"MEAN_MOTION_DDOT":0},{"OBJECT_NAME":"STARLINK-35976","OBJECT_ID":"2025-265U","EPOCH":"2026-03-09T21:57:14.393952","MEAN_MOTION":15.27600321,"ECCENTRICITY":0.00014722,"INCLINATION":42.9985,"RA_OF_ASC_NODE":277.0216,"ARG_OF_PERICENTER":268.9183,"MEAN_ANOMALY":91.15,"EPHEMERIS_TYPE":0,"CLASSIFICATION_TYPE":"U","NORAD_CAT_ID":66534,"ELEMENT_SET_NO":999,"REV_AT_EPOCH":1714,"BSTAR":0.00087417326,"MEAN_MOTION_DOT":0.00023886,"MEAN_MOTION_DDOT":0}]
